SPAWAR-CAL-O            
1 43766U 18099J   26068.73975788  .00021069  00000+0  69663-3 0  9999
2 43766  97.4452 132.0993 0007239 285.0670  74.9770 15.31356755398280
STARLINK-36121          
1 66940U 25286R   26068.20377004  .00017854  00000+0  61351-3 0  9996
2 66940  53.1624   0.6176 0001001 112.7165 247.3942 15.30198288 15342
